QIANFAN-60              
1 62790U 25016F   25334.11505953  .00000059  00000+0  72344-4 0  9991
2 62790  88.9751 104.3806 0016054  25.9853 334.2101 13.50979144 45527
QIANFAN-61              
1 62791U 25016G   25334.14781355  .00000139  00000+0  19691-3 0  9991
2 62791  88.9818 104.5314 0015006  25.6278 334.5614 13.50976243 45543
QIANFAN-62              
1 62792U 25016H   25334.15192131  .00000135  00000+0  19035-3 0  9999
2 62792  88.9764 104.4062 0016386  25.4528 334.7427 13.50986192 45538
QIANFAN-63              
1 62793U 25016J   25334.10260875  .00000139  00000+0  19704-3 0  9993
2 62793  88.9771 104.3621 0016586  30.7612 329.4508 13.50979246 45568
QIANFAN-64              
1 62794U 25016K   25334.14367950  .00000153  00000+0  21803-3 0  9999
2 62794  88.9758 104.3336 0014342  24.5940 335.5892 13.50981190 45565
QIANFAN-65              
1 62795U 25016L   25334.13962449  .00000156  00000+0  22274-3 0  9999
2 62795  88.9754 104.3605 0014228  26.4105 333.7769 13.50980145 45548
QIANFAN-66              
1 62796U 25016M   25334.09432303  .00000140  00000+0  19875-3 0  9992
2 62796  88.9773 104.3328 0015198  21.7108 338.4684 13.50984132 45582
QIANFAN-67              
1 62797U 25016N   25334.09856726  .00000142  00000+0  20147-3 0  9998
2 62797  88.9764 104.3592 0015372  28.4407 331.7580 13.50976987 45553
QIANFAN-68              
1 62798U 25016P   25334.09028406  .00000135  00000+0  19015-3 0  9999
2 62798  88.9767 104.4047 0015372  26.7265 333.4675 13.50979317 45538
QIANFAN-69              
1 62799U 25016Q   25334.10680595  .00000133  00000+0  18670-3 0  9999
2 62799  88.9746 104.2752 0016157  27.4737 332.7265 13.50982308 45576
QIANFAN-70              
1 62800U 25016R   25334.12314304  .00000134  00000+0  18874-3 0  9993
2 62800  88.9767 104.4093 0015485  18.1148 342.0552 13.50972980 45532
QIANFAN-71              
1 62801U 25016S   25334.11904970  .00000126  00000+0  17672-3 0  9993
2 62801  88.9761 104.3900 0016175  30.8903 329.3196 13.50980235 45534
QIANFAN-72              
1 62802U 25016T   25334.13552606  .00000146  00000+0  20794-3 0  9992
2 62802  88.9752 104.4029 0019613  36.8758 323.3738 13.50980214 45524
QIANFAN-73              
1 63159U 25046A   25334.16250148  .00000051  00000+0  59752-4 0  9992
2 63159  88.9752 321.3256 0015594 153.7187 206.4759 13.50974428 45716
QIANFAN-74              
1 63160U 25046B   25334.07186322  .00000065  00000+0  81542-4 0  9993
2 63160  88.9753 321.2236 0001988  83.1052 277.0325 13.50976550 45761
QIANFAN-75              
1 63161U 25046C   25334.13320603  .00000069  00000+0  87314-4 0  9990
2 63161  88.9755 321.4507 0016593 157.1488 203.0405 13.50985437 45649
QIANFAN-76              
1 63162U 25046D   25334.12970657 -.00000120  00000+0 -20394-3 0  9994
2 63162  88.9749 321.4319 0014125 156.9245 203.2543 13.50963523 45659
QIANFAN-77              
1 63163U 25046E   25334.14286535  .00000156  00000+0  10371-3 0  9993
2 63163  88.9755 319.5405 0016636 116.1020 244.1871 13.96078538 46695
QIANFAN-78              
1 63164U 25046F   25334.09663928  .00000027  00000+0  22529-4 0  9999
2 63164  88.9753 321.2993 0015448 159.6034 200.5737 13.50974705 45724
QIANFAN-79              
1 63165U 25046G   25334.12531615  .00000051  00000+0  60279-4 0  9992
2 63165  88.9757 321.4034 0015207 157.7350 202.4464 13.50976024 45678
QIANFAN-80              
1 63166U 25046H   25334.06774530  .00000061  00000+0  76132-4 0  9997
2 63166  88.9755 321.1164 0014026 161.4468 198.7198 13.50972877 45828
QIANFAN-81              
1 63167U 25046J   25334.12044722  .00000101  00000+0  13684-3 0  9995
2 63167  88.9754 321.1790 0015402 150.7523 209.4494 13.50998204 45781
QIANFAN-82              
1 63168U 25046K   25334.08018707  .00000093  00000+0  12527-3 0  9990
2 63168  88.9754 321.2270 0013323 157.3781 202.7960 13.50972264 45765
QIANFAN-83              
1 63169U 25046L   25334.13600973  .00000072  00000+0  77055-4 0  9994
2 63169  88.9755 321.0223 0015040 144.4786 215.7376 13.61970474 45884
QIANFAN-84              
1 63170U 25046M   25334.10809646 -.00000088  00000+0 -15583-3 0  9997
2 63170  88.9750 321.3570 0016355 155.5480 204.6451 13.50984829 45690
QIANFAN-85              
1 63171U 25046N   25334.10475359  .00000130  00000+0  18281-3 0  9992
2 63171  88.9754 321.2289 0013709 156.3643 203.8141 13.50972272 45765
QIANFAN-86              
1 63172U 25046P   25334.11308230  .00000156  00000+0  22344-3 0  9990
2 63172  88.9756 321.0900 0011480 159.0567 201.1057 13.50972500 45845
QIANFAN-87              
1 63173U 25046Q   25334.08439600  .00000048  00000+0  55103-4 0  9993
2 63173  88.9752 321.2052 0012262 155.1414 205.0331 13.50971369 45771
QIANFAN-88              
1 63174U 25046R   25334.10078154  .00000107  00000+0  14686-3 0  9996
2 63174  88.9755 321.1576 0012417 163.0221 197.1348 13.50977085 45805
QIANFAN-89              
1 63175U 25046S   25334.06354519  .00000110  00000+0  15092-3 0  9990
2 63175  88.9754 321.3505 0017035 156.0896 204.1050 13.50972577 45697
QIANFAN-90              
1 63176U 25046T   25334.09230057  .00000018  00000+0  87882-5 0  9999
2 63176  88.9755 321.3200 0014038 153.0291 207.1592 13.50974618 45712
QIANFAN-91              
1 66033U 25233A   25334.07429176  .00000449  00000+0  28845-3 0  9992
2 66033  88.9962  63.5339 0018915  77.4992 282.8302 14.01406026  6211
QIANFAN-92              
1 66034U 25233B   25331.79490645  .00000349  00000+0  21017-3 0  9991
2 66034  89.0060  63.7624 0015410  97.8127 262.4805 14.04432346  5897
QIANFAN-93              
1 66035U 25233C   25334.07252111  .00000142  00000+0  87286-4 0  9992
2 66035  88.9963  63.5335 0017419  78.6888 281.6247 13.99884567  6216
QIANFAN-94              
1 66036U 25233D   25334.07248698  .00000389  00000+0  24496-3 0  9994
2 66036  88.9963  63.5335 0017116  78.9964 281.3140 14.02229337  6211
QIANFAN-95              
1 66037U 25233E   25333.63693519  .00000600  00000+0  26169-3 0  9997
2 66037  88.9966  63.5427 0016394  81.9733 278.3318 14.22653119  6171
QIANFAN-96              
1 66038U 25233F   25333.87548313  .00000331  00000+0  22101-3 0  9998
2 66038  88.9950  63.5685 0019962  85.6894 274.6564 13.98617863  6185
QIANFAN-97              
1 66039U 25233G   25332.79298163  .00000294  00000+0  18339-3 0  9990
2 66039  88.9959  63.6746 0017882  84.9973 275.3248 14.01998115  6031
QIANFAN-98              
1 66040U 25233H   25334.02781200  .00000142  00000+0  68689-4 0  9995
2 66040  88.9964  63.5082 0016626  80.0794 280.2268 14.12899974  6227
QIANFAN-99              
1 66041U 25233J   25332.07743403  .00000336  00000+0  20950-3 0  9995
2 66041  88.9964  63.7549 0017865  82.9134 277.4077 14.02500694  5933
QIANFAN-100             
1 66042U 25233K   25334.03148156  .00000491  00000+0  26580-3 0  9995
2 66042  88.9964  63.5092 0017471  82.4864 277.8305 14.10879474  6228
QIANFAN-101             
1 66043U 25233L   25334.18167558  .00000353  00000+0  13966-3 0  9990
2 66043  88.9966  63.4757 0016901  78.9409 281.3685 14.26664066  6250
QIANFAN-102             
1 66044U 25233M   25334.12381042  .00000367  00000+0  23061-3 0  9993
2 66044  88.9966  63.5227 0017217  81.6300 278.6832 14.02278515  6220
QIANFAN-103             
1 66045U 25233N   25332.72634256  .00000234  00000+0  14705-3 0  9994
2 66045  88.9961  63.6845 0017979  83.0797 277.2427 14.00818104  6029
QIANFAN-104             
1 66046U 25233P   25331.70023505  .00000498  00000+0  29379-3 0  9996
2 66046  88.9966  63.7917 0017339  89.3013 271.0156 14.06186482  5883
QIANFAN-105             
1 66047U 25233Q   25333.69583152  .00000202  00000+0  12046-3 0  9992
2 66047  88.9996  63.5787 0019493  72.6391 287.6920 14.03327929  6161
QIANFAN-106             
1 66048U 25233R   25333.57294777  .00000133  00000+0  79267-4 0  9994
2 66048  88.9961  63.5885 0017985  80.9939 279.3275 14.01210003  6148
QIANFAN-107             
1 66049U 25233S   25334.12681972  .00000302  00000+0  18919-3 0  9998
2 66049  88.9967  63.5233 0017946  80.0044 280.3160 14.01803690  6221
QIANFAN-108             
1 66050U 25233T   25333.56291572  .00000204  00000+0  12389-3 0  9996
2 66050  88.9965  63.5875 0017107  82.8593 277.4532 14.02258223  6149
